IDEFIX & ARIANE 42P R/B 
1 27422U 02021B   25357.56121245  .00000283  00000+0  12408-3 0  9990
2 27422  98.5801 292.1123 0012801  54.4744 305.7631 14.30957653233130
AQUA                    
1 27424U 02022A   25357.83892883  .00000980  00000+0  20598-3 0  9999
2 27424  98.4053 318.8992 0001509 108.9448 272.2576 14.61824731257652
CZ-4B R/B               
1 27432U 02024C   25357.11292271  .00000066  00000+0  57331-4 0  9997
2 27432  98.8984  45.8479 0049318 239.8816 174.4513 14.14530059218418
MIDORI II (ADEOS-II)    
1 27597U 02056A   25357.42670909  .00000242  00000+0  11317-3 0  9995
2 27597  98.7653 310.4399 0000741 147.7466 212.3760 14.29212299199401
H-2A R/B                
1 27601U 02056E   25357.91802813  .00000382  00000+0  14830-3 0  9994
2 27601  98.3082 316.2305 0070956  28.2593  38.2477 14.33685456203252
CZ-4B R/B               
1 28059U 03049C   25357.94313800  .00000403  00000+0  10405-3 0  9999
2 28059  98.6797 344.9306 0049367 102.5507 258.1217 14.54919614175586
CZ-2C R/B               
1 28222U 04012C   25357.60838323  .00037034  00000+0  52347-3 0  9998
2 28222  97.7398  51.1328 0016555 227.7549 132.2301 15.56297790192419
SL-16 R/B               
1 28353U 04021B   25357.79425595  .00000086  00000+0  69516-4 0  9990
2 28353  71.0004  31.7670 0004688 181.4738 178.6371 14.14579213112102
CZ-4B R/B               
1 28415U 04035C   25357.04310018  .00009343  00000+0  34458-3 0  9996
2 28415  97.3590  27.2497 0031647 239.0694 120.7433 15.27529993168209
CZ-2C R/B               
1 28480U 04046B   25357.33661766  .00000252  00000+0  10878-3 0  9991
2 28480  98.1997 272.0562 0139999  21.1428 339.5463 14.26946599 97610
ARIANE 5 R/B            
1 28499U 04049H   25357.97238857  .00001228  00000+0  14235-3 0  9990
2 28499  98.2528 158.6568 0083453 236.0353 123.2910 14.85039400134552
CZ-2D R/B               
1 28738U 05024B   25357.92981438  .00031286  00000+0  48748-3 0  9998
2 28738  97.3630   5.6749 0003718 321.6418  38.4570 15.53814145127995
